{
    "links": {
        "self": "http://www.neowsapp.com/rest/v1/neo/3802005?api_key=iIulBulltgU6a56xZRHN4H3l9WmuAYTsLGpBGhQ2"
    },
    "id": "3802005",
    "neo_reference_id": "3802005",
    "name": "(2018 FA2)",
    "designation": "2018 FA2",
    "nasa_jpl_url": "http://ssd.jpl.nasa.gov/sbdb.cgi?sstr=3802005",
    "absolute_magnitude_h": 26.9,
    "estimated_diameter": {
        "kilometers": {
            "estimated_diameter_min": 0.0110803882,
            "estimated_diameter_max": 0.0247765013
        },
        "meters": {
            "estimated_diameter_min": 11.0803882126,
            "estimated_diameter_max": 24.7765012606
        },
        "miles": {
            "estimated_diameter_min": 0.0068850319,
            "estimated_diameter_max": 0.0153953994
        },
        "feet": {
            "estimated_diameter_min": 36.3529808636,
            "estimated_diameter_max": 81.2877363957
        }
    },
    "is_potentially_hazardous_asteroid": false,
    "close_approach_data": [
        {
            "close_approach_date": "2018-03-23",
            "close_approach_date_full": "2018-Mar-23 15:18",
            "epoch_date_close_approach": 1521818280000,
            "relative_velocity": {
                "kilometers_per_second": "8.2209998963",
                "kilometers_per_hour": "29595.5996267958",
                "miles_per_hour": "18389.5546681054"
            },
            "miss_distance": {
                "astronomical": "0.0286135695",
                "lunar": "11.1306785355",
                "kilometers": "4280529.050296965",
                "miles": "2659797.415409517"
            },
            "orbiting_body": "Earth"
        }
    ],
    "orbital_data": {
        "orbit_id": "3",
        "orbit_determination_date": "2018-03-22 06:23:45",
        "first_observation_date": "2018-03-18",
        "last_observation_date": "2018-03-22",
        "data_arc_in_days": 4,
        "observations_used": 28,
        "orbit_uncertainty": "8",
        "minimum_orbit_intersection": ".0198504",
        "jupiter_tisserand_invariant": "3.374",
        "epoch_osculation": "2458196.5",
        "eccentricity": ".5587797412965955",
        "semi_major_axis": "2.285637705529566",
        "inclination": "3.500904175468535",
        "ascending_node_longitude": "176.274086085807",
        "orbital_period": "1262.145765793201",
        "perihelion_distance": "1.008469659736011",
        "perihelion_argument": "22.16115376323881",
        "aphelion_distance": "3.562805751323121",
        "perihelion_time": "2458213.559999093290",
        "mean_anomaly": "355.1340012857194",
        "mean_motion": ".2852285447186494",
        "equinox": "J2000",
        "orbit_class": {
            "orbit_class_type": "APO",
            "orbit_class_description": "Near-Earth asteroid orbits which cross the Earth’s orbit similar to that of 1862 Apollo",
            "orbit_class_range": "a (semi-major axis) > 1.0 AU; q (perihelion) < 1.017 AU"
        }
    },
    "is_sentry_object": false
}